{
  "schema_version": 1,
  "seed": "123456789",
  "age_s": 7.1051001508061784e+16,
  "stars": [
    {
      "mass_kg": 2.2399316557768857e+30,
      "radius_m": 744464428.3033822,
      "luminosity_w": 6.158029133898099e+26,
      "temperature_k": 6283.951160239945,
      "main_sequence_lifetime_s": 2.344732824120492e+17,
      "orbit": null
    },
    {
      "mass_kg": 1.909950317362499e+30,
      "radius_m": 673512728.3924899,
      "luminosity_w": 3.2552994933649986e+26,
      "temperature_k": 5633.381661140236,
      "main_sequence_lifetime_s": 3.492409059207977e+17,
      "orbit": {
        "semi_major_axis_m": 57263714836484.91,
        "eccentricity": 0.16669957582757877,
        "inclination_rad": 0.03840172733837074,
        "raan_rad": 2.81815463722151,
        "arg_periapsis_rad": 1.894581457974511,
        "mean_anomaly_epoch_rad": 3.859100375187903
      }
    }
  ],
  "planet_host": "Primary",
  "planets": [
    {
      "class": "GasGiant",
      "mass_kg": 3.2957318983236096e+27,
      "radius_m": 68352486.85153282,
      "orbit": {
        "semi_major_axis_m": 821411436529.5742,
        "eccentricity": 0.010124121047735857,
        "inclination_rad": 0.048805542515198516,
        "raan_rad": 0.11206665495743952,
        "arg_periapsis_rad": 5.274710965840202,
        "mean_anomaly_epoch_rad": 1.8841606501417676
      },
      "secular": {
        "apsidal_rad_per_s": 9.978913060403156e-17,
        "nodal_rad_per_s": 0.0,
        "migration_m_per_s": 0.0
      },
      "axial_tilt_rad": 0.5472313470596851,
      "axial_precession_rad_per_s": 4.907888169928002e-13,
      "rotation_period_s": 59600.0660234848,
      "spin_drift_s_per_s": 1.9483269865546985e-15,
      "state": {
        "kind": "Living"
      },
      "moons": [
        {
          "mass_kg": 4.62165990974072e+22,
          "radius_m": 1543580.8195352629,
          "orbit": {
            "semi_major_axis_m": 864637857.3714,
            "eccentricity": 0.04008376748654676,
            "inclination_rad": 0.046423875743336056,
            "raan_rad": 5.831435078431064,
            "arg_periapsis_rad": 3.081562209859813,
            "mean_anomaly_epoch_rad": 2.6734798832057765
          },
          "secular": {
            "apsidal_rad_per_s": 2.3006111769541243e-11,
            "nodal_rad_per_s": -1.0955291318829163e-11,
            "migration_m_per_s": 5.289771601224933e-8
          },
          "tidally_locked": true,
          "rotation_period_s": 340606.1136735568,
          "doom_time_s": null
        },
        {
          "mass_kg": 3.885763233129963e+22,
          "radius_m": 1456874.550568598,
          "orbit": {
            "semi_major_axis_m": 1684714517.5049112,
            "eccentricity": 0.009001103146539987,
            "inclination_rad": 0.008677103543740662,
            "raan_rad": 0.8557208853147888,
            "arg_periapsis_rad": 0.1398488962205646,
            "mean_anomaly_epoch_rad": 4.778756987692481
          },
          "secular": {
            "apsidal_rad_per_s": 6.263731624375642e-11,
            "nodal_rad_per_s": -2.982729344940782e-11,
            "migration_m_per_s": 1.1345114360937579e-9
          },
          "tidally_locked": true,
          "rotation_period_s": 926382.9349328025,
          "doom_time_s": null
        },
        {
          "mass_kg": 1.6288476449901908e+23,
          "radius_m": 2349038.853192366,
          "orbit": {
            "semi_major_axis_m": 3219148191.5217133,
            "eccentricity": 0.0005561230659358074,
            "inclination_rad": 0.018027514448273302,
            "raan_rad": 4.242412154301338,
            "arg_periapsis_rad": 5.961969908969492,
            "mean_anomaly_epoch_rad": 1.8100726316325864
          },
          "secular": {
            "apsidal_rad_per_s": 1.654249048847992e-10,
            "nodal_rad_per_s": -7.877376423085676e-11,
            "migration_m_per_s": 1.3506176635463727e-10
          },
          "tidally_locked": true,
          "rotation_period_s": 2446879.1665959195,
          "doom_time_s": null
        }
      ],
      "calendar": null
    },
    {
      "class": "GasGiant",
      "mass_kg": 5.568172029600619e+26,
      "radius_m": 71788469.99175496,
      "orbit": {
        "semi_major_axis_m": 1551495766849.3896,
        "eccentricity": 0.1763930771157846,
        "inclination_rad": 0.014014698973407664,
        "raan_rad": 3.2142017099305797,
        "arg_periapsis_rad": 2.7192361259580897,
        "mean_anomaly_epoch_rad": 3.3681455869658223
      },
      "secular": {
        "apsidal_rad_per_s": 2.1003498956592226e-17,
        "nodal_rad_per_s": 0.0,
        "migration_m_per_s": 0.0
      },
      "axial_tilt_rad": 0.007147770955818655,
      "axial_precession_rad_per_s": 5.773266183144452e-12,
      "rotation_period_s": 49430.57465412493,
      "spin_drift_s_per_s": 7.581216599383006e-14,
      "state": {
        "kind": "Living"
      },
      "moons": [
        {
          "mass_kg": 4.086925255580157e+22,
          "radius_m": 1481593.089525852,
          "orbit": {
            "semi_major_axis_m": 451945434.9649496,
            "eccentricity": 0.04567103993320604,
            "inclination_rad": 0.05636877821329437,
            "raan_rad": 1.6146994687231389,
            "arg_periapsis_rad": 2.221117060116452,
            "mean_anomaly_epoch_rad": 3.3712845300126837
          },
          "secular": {
            "apsidal_rad_per_s": 3.137247258259156e-12,
            "nodal_rad_per_s": -1.4939272658376933e-12,
            "migration_m_per_s": 5.1555199231290814e-6
          },
          "tidally_locked": true,
          "rotation_period_s": 313148.0346247438,
          "doom_time_s": null
        },
        {
          "mass_kg": 1.3046761889342556e+23,
          "radius_m": 2181545.577228094,
          "orbit": {
            "semi_major_axis_m": 810559197.7620215,
            "eccentricity": 0.07712707383646303,
            "inclination_rad": 0.013587990808950267,
            "raan_rad": 0.6088604155195109,
            "arg_periapsis_rad": 2.7737539439845587,
            "mean_anomaly_epoch_rad": 1.0001616198361392
          },
          "secular": {
            "apsidal_rad_per_s": 7.54652636725282e-12,
            "nodal_rad_per_s": -3.5935839844061046e-12,
            "migration_m_per_s": 6.622705943346383e-7
          },
          "tidally_locked": true,
          "rotation_period_s": 752138.4516675835,
          "doom_time_s": null
        },
        {
          "mass_kg": 1.1949128258757891e+23,
          "radius_m": 2118566.592160757,
          "orbit": {
            "semi_major_axis_m": 1347678117.8143322,
            "eccentricity": 0.0704903722559241,
            "inclination_rad": 0.05447716314954062,
            "raan_rad": 6.006315265279243,
            "arg_periapsis_rad": 4.29394754166992,
            "mean_anomaly_epoch_rad": 3.5166786250652042
          },
          "secular": {
            "apsidal_rad_per_s": 1.6156399568346918e-11,
            "nodal_rad_per_s": -7.693523603974722e-12,
            "migration_m_per_s": 3.702209975993664e-8
          },
          "tidally_locked": true,
          "rotation_period_s": 1612500.8399602058,
          "doom_time_s": null
        },
        {
          "mass_kg": 8.694863053667389e+21,
          "radius_m": 884472.4178431025,
          "orbit": {
            "semi_major_axis_m": 2415424587.5403075,
            "eccentricity": 0.023440119840021367,
            "inclination_rad": 0.04120550796740728,
            "raan_rad": 5.239295970989456,
            "arg_periapsis_rad": 2.6123997892404707,
            "mean_anomaly_epoch_rad": 1.8348732412371784
          },
          "secular": {
            "apsidal_rad_per_s": 3.879104748878457e-11,
            "nodal_rad_per_s": -1.84719273756117e-11,
            "migration_m_per_s": 1.0880463263268396e-10
          },
          "tidally_locked": true,
          "rotation_period_s": 3869108.499356613,
          "doom_time_s": null
        }
      ],
      "calendar": null
    }
  ],
  "anchor_planet": 4
}
